[{"OBJECT_NAME":"ICEYE-X45","OBJECT_ID":"2025-009DA","EPOCH":"2026-03-09T17:22:29.842464","MEAN_MOTION":15.00857928,"ECCENTRICITY":8.841e-5,"INCLINATION":97.8049,"RA_OF_ASC_NODE":154.8158,"ARG_OF_PERICENTER":73.7941,"MEAN_ANOMALY":286.338,"EPHEMERIS_TYPE":0,"CLASSIFICATION_TYPE":"U","NORAD_CAT_ID":62705,"ELEMENT_SET_NO":999,"REV_AT_EPOCH":6276,"BSTAR":0.00045352987,"MEAN_MOTION_DOT":5.708e-5,"MEAN_MOTION_DDOT":0},{"OBJECT_NAME":"STARLINK-34608","OBJECT_ID":"2025-150W","EPOCH":"2026-03-09T13:59:09.467808","MEAN_MOTION":14.98326574,"ECCENTRICITY":0.0003269,"INCLINATION":70.002,"RA_OF_ASC_NODE":134.6149,"ARG_OF_PERICENTER":266.7801,"MEAN_ANOMALY":93.2984,"EPHEMERIS_TYPE":0,"CLASSIFICATION_TYPE":"U","NORAD_CAT_ID":64810,"ELEMENT_SET_NO":999,"REV_AT_EPOCH":3650,"BSTAR":0.0002357,"MEAN_MOTION_DOT":2.72e-5,"MEAN_MOTION_DDOT":0}]
